CCSDS_OMM_VERS = 2.0
CREATION_DATE  = 
ORIGINATOR     = 

OBJECT_NAME    = STARLINK-36996
OBJECT_ID      = 2026-041AA
CENTER_NAME    = EARTH
REF_FRAME      = TEME
TIME_SYSTEM    = UTC
MEAN_ELEMENT_THEORY = SGP/SGP4

EPOCH          = 2026-04-01T04:06:13.408992
MEAN_MOTION    = 15.75306338
ECCENTRICITY   = .0000905
INCLINATION    = 53.1580
RA_OF_ASC_NODE = 309.5139
ARG_OF_PERICENTER = 128.6981
MEAN_ANOMALY   = 231.4120

EPHEMERIS_TYPE = 0
CLASSIFICATION_TYPE = U
NORAD_CAT_ID   = 68064
ELEMENT_SET_NO = 999
REV_AT_EPOCH   = 477
BSTAR          = .18142E-2
MEAN_MOTION_DOT = .287976E-2
MEAN_MOTION_DDOT = 0

CCSDS_OMM_VERS = 2.0
CREATION_DATE  = 
ORIGINATOR     = 

OBJECT_NAME    = STARLINK-36836
OBJECT_ID      = 2026-041AB
CENTER_NAME    = EARTH
REF_FRAME      = TEME
TIME_SYSTEM    = UTC
MEAN_ELEMENT_THEORY = SGP/SGP4

EPOCH          = 2026-04-01T04:05:45.028320
MEAN_MOTION    = 15.75294837
ECCENTRICITY   = .000039
INCLINATION    = 53.1572
RA_OF_ASC_NODE = 309.5110
ARG_OF_PERICENTER = 79.9058
MEAN_ANOMALY   = 280.2006

EPHEMERIS_TYPE = 0
CLASSIFICATION_TYPE = U
NORAD_CAT_ID   = 68065
ELEMENT_SET_NO = 999
REV_AT_EPOCH   = 477
BSTAR          = .17789E-2
MEAN_MOTION_DOT = .282038E-2
MEAN_MOTION_DDOT = 0

CCSDS_OMM_VERS = 2.0
CREATION_DATE  = 
ORIGINATOR     = 

OBJECT_NAME    = STARLINK-36976
OBJECT_ID      = 2026-041AC
CENTER_NAME    = EARTH
REF_FRAME      = TEME
TIME_SYSTEM    = UTC
MEAN_ELEMENT_THEORY = SGP/SGP4

EPOCH          = 2026-04-01T03:20:36.218976
MEAN_MOTION    = 15.75308148
ECCENTRICITY   = .000129
INCLINATION    = 53.1560
RA_OF_ASC_NODE = 310.0392
ARG_OF_PERICENTER = 261.6735
MEAN_ANOMALY   = 98.4139

EPHEMERIS_TYPE = 0
CLASSIFICATION_TYPE = U
NORAD_CAT_ID   = 68066
ELEMENT_SET_NO = 999
REV_AT_EPOCH   = 476
BSTAR          = .15178E-2
MEAN_MOTION_DOT = .23945E-2
MEAN_MOTION_DDOT = 0

CCSDS_OMM_VERS = 2.0
CREATION_DATE  = 
ORIGINATOR     = 

OBJECT_NAME    = STARLINK-36929
OBJECT_ID      = 2026-041AD
CENTER_NAME    = EARTH
REF_FRAME      = TEME
TIME_SYSTEM    = UTC
MEAN_ELEMENT_THEORY = SGP/SGP4

EPOCH          = 2026-04-01T00:23:57.435936
MEAN_MOTION    = 15.75264005
ECCENTRICITY   = .0000799
INCLINATION    = 53.1572
RA_OF_ASC_NODE = 310.6986
ARG_OF_PERICENTER = 64.2813
MEAN_ANOMALY   = 295.8289

EPHEMERIS_TYPE = 0
CLASSIFICATION_TYPE = U
NORAD_CAT_ID   = 68067
ELEMENT_SET_NO = 999
REV_AT_EPOCH   = 474
BSTAR          = .16906E-2
MEAN_MOTION_DOT = .26715E-2
MEAN_MOTION_DDOT = 0

CCSDS_OMM_VERS = 2.0
CREATION_DATE  = 
ORIGINATOR     = 

OBJECT_NAME    = STARLINK-36990
OBJECT_ID      = 2026-041AE
CENTER_NAME    = EARTH
REF_FRAME      = TEME
TIME_SYSTEM    = UTC
MEAN_ELEMENT_THEORY = SGP/SGP4

EPOCH          = 2026-04-01T05:01:50.607264
MEAN_MOTION    = 15.80962162
ECCENTRICITY   = .0000871
INCLINATION    = 53.1569
RA_OF_ASC_NODE = 309.0314
ARG_OF_PERICENTER = 34.6658
MEAN_ANOMALY   = 325.4421

EPHEMERIS_TYPE = 0
CLASSIFICATION_TYPE = U
NORAD_CAT_ID   = 68068
ELEMENT_SET_NO = 999
REV_AT_EPOCH   = 478
BSTAR          = .16296E-2
MEAN_MOTION_DOT = .335111E-2
MEAN_MOTION_DDOT = 0

CCSDS_OMM_VERS = 2.0
CREATION_DATE  = 
ORIGINATOR     = 

OBJECT_NAME    = STARLINK-36766
OBJECT_ID      = 2026-042A
CENTER_NAME    = EARTH
REF_FRAME      = TEME
TIME_SYSTEM    = UTC
MEAN_ELEMENT_THEORY = SGP/SGP4

EPOCH          = 2026-04-01T12:00:00.998784
MEAN_MOTION    = 15.75213224
ECCENTRICITY   = .0001189
INCLINATION    = 53.1582
RA_OF_ASC_NODE = 80.5767
ARG_OF_PERICENTER = 73.1490
MEAN_ANOMALY   = 124.6334

EPHEMERIS_TYPE = 0
CLASSIFICATION_TYPE = U
NORAD_CAT_ID   = 68069
ELEMENT_SET_NO = 999
REV_AT_EPOCH   = 570
BSTAR          = .29552E-3
MEAN_MOTION_DOT = .44849E-3
MEAN_MOTION_DDOT = 0

CCSDS_OMM_VERS = 2.0
CREATION_DATE  = 
ORIGINATOR     = 

OBJECT_NAME    = STARLINK-36823
OBJECT_ID      = 2026-042B
CENTER_NAME    = EARTH
REF_FRAME      = TEME
TIME_SYSTEM    = UTC
MEAN_ELEMENT_THEORY = SGP/SGP4

EPOCH          = 2026-04-01T06:21:21.324096
MEAN_MOTION    = 15.80941111
ECCENTRICITY   = .0001082
INCLINATION    = 53.1563
RA_OF_ASC_NODE = 81.6298
ARG_OF_PERICENTER = 38.4869
MEAN_ANOMALY   = 321.6230

EPHEMERIS_TYPE = 0
CLASSIFICATION_TYPE = U
NORAD_CAT_ID   = 68070
ELEMENT_SET_NO = 999
REV_AT_EPOCH   = 565
BSTAR          = .12282E-2
MEAN_MOTION_DOT = .249621E-2
MEAN_MOTION_DDOT = 0

CCSDS_OMM_VERS = 2.0
CREATION_DATE  = 
ORIGINATOR     = 

OBJECT_NAME    = STARLINK-36970
OBJECT_ID      = 2026-042C
CENTER_NAME    = EARTH
REF_FRAME      = TEME
TIME_SYSTEM    = UTC
MEAN_ELEMENT_THEORY = SGP/SGP4

EPOCH          = 2026-04-01T08:27:12.233952
MEAN_MOTION    = 15.75286596
ECCENTRICITY   = .0001734
INCLINATION    = 53.1585
RA_OF_ASC_NODE = 81.4728
ARG_OF_PERICENTER = 114.8825
MEAN_ANOMALY   = 245.2376

EPHEMERIS_TYPE = 0
CLASSIFICATION_TYPE = U
NORAD_CAT_ID   = 68071
ELEMENT_SET_NO = 999
REV_AT_EPOCH   = 566
BSTAR          = .1167E-2
MEAN_MOTION_DOT = .182534E-2
MEAN_MOTION_DDOT = 0

CCSDS_OMM_VERS = 2.0
CREATION_DATE  = 
ORIGINATOR     = 

OBJECT_NAME    = STARLINK-36972
OBJECT_ID      = 2026-042D
CENTER_NAME    = EARTH
REF_FRAME      = TEME
TIME_SYSTEM    = UTC
MEAN_ELEMENT_THEORY = SGP/SGP4

EPOCH          = 2026-04-01T12:00:00.998784
MEAN_MOTION    = 15.75218561
ECCENTRICITY   = .0001262
INCLINATION    = 53.1590
RA_OF_ASC_NODE = 80.4748
ARG_OF_PERICENTER = 92.0724
MEAN_ANOMALY   = 155.3543

EPHEMERIS_TYPE = 0
CLASSIFICATION_TYPE = U
NORAD_CAT_ID   = 68072
ELEMENT_SET_NO = 999
REV_AT_EPOCH   = 571
BSTAR          = .28526E-3
MEAN_MOTION_DOT = .43273E-3
MEAN_MOTION_DDOT = 0

CCSDS_OMM_VERS = 2.0
CREATION_DATE  = 
ORIGINATOR     = 

OBJECT_NAME    = STARLINK-37074
OBJECT_ID      = 2026-042E
CENTER_NAME    = EARTH
REF_FRAME      = TEME
TIME_SYSTEM    = UTC
MEAN_ELEMENT_THEORY = SGP/SGP4

EPOCH          = 2026-04-01T11:16:22.829088
MEAN_MOTION    = 15.75314701
ECCENTRICITY   = .0001039
INCLINATION    = 53.1572
RA_OF_ASC_NODE = 80.7784
ARG_OF_PERICENTER = 140.3686
MEAN_ANOMALY   = 219.7410

EPHEMERIS_TYPE = 0
CLASSIFICATION_TYPE = U
NORAD_CAT_ID   = 68073
ELEMENT_SET_NO = 999
REV_AT_EPOCH   = 568
BSTAR          = .20101E-2
MEAN_MOTION_DOT = .320516E-2
MEAN_MOTION_DDOT = 0

CCSDS_OMM_VERS = 2.0
CREATION_DATE  = 
ORIGINATOR     = 

OBJECT_NAME    = STARLINK-37045
OBJECT_ID      = 2026-042F
CENTER_NAME    = EARTH
REF_FRAME      = TEME
TIME_SYSTEM    = UTC
MEAN_ELEMENT_THEORY = SGP/SGP4

EPOCH          = 2026-04-01T10:18:10.510848
MEAN_MOTION    = 15.75298433
ECCENTRICITY   = .0001263
INCLINATION    = 53.1584
RA_OF_ASC_NODE = 81.2485
ARG_OF_PERICENTER = 105.0018
MEAN_ANOMALY   = 255.1142

EPHEMERIS_TYPE = 0
CLASSIFICATION_TYPE = U
NORAD_CAT_ID   = 68074
ELEMENT_SET_NO = 999
REV_AT_EPOCH   = 567
BSTAR          = .10528E-2
MEAN_MOTION_DOT = .164343E-2
MEAN_MOTION_DDOT = 0

CCSDS_OMM_VERS = 2.0
CREATION_DATE  = 
ORIGINATOR     = 

OBJECT_NAME    = STARLINK-37026
OBJECT_ID      = 2026-042G
CENTER_NAME    = EARTH
REF_FRAME      = TEME
TIME_SYSTEM    = UTC
MEAN_ELEMENT_THEORY = SGP/SGP4

EPOCH          = 2026-04-01T04:26:15.962208
MEAN_MOTION    = 15.75248719
ECCENTRICITY   = .0001097
INCLINATION    = 53.1557
RA_OF_ASC_NODE = 82.5718
ARG_OF_PERICENTER = 102.4435
MEAN_ANOMALY   = 257.6708

EPHEMERIS_TYPE = 0
CLASSIFICATION_TYPE = U
NORAD_CAT_ID   = 68075
ELEMENT_SET_NO = 999
REV_AT_EPOCH   = 563
BSTAR          = .19264E-2
MEAN_MOTION_DOT = .305707E-2
MEAN_MOTION_DDOT = 0

