STARLINK-36996          
1 68064U 26041AA  26091.17098853  .00287976  00000+0  18142-2 0  9992
2 68064  53.1580 309.5139 0000905 128.6981 231.4120 15.75306338  4779
STARLINK-36836          
1 68065U 26041AB  26091.17066005  .00282038  00000+0  17789-2 0  9997
2 68065  53.1572 309.5110 0000390  79.9058 280.2006 15.75294837  4776
STARLINK-36976          
1 68066U 26041AC  26091.13930809  .00239450  00000+0  15178-2 0  9996
2 68066  53.1560 310.0392 0001290 261.6735  98.4139 15.75308148  4761
STARLINK-36929          
1 68067U 26041AD  26091.01663699  .00267150  00000+0  16906-2 0  9992
2 68067  53.1572 310.6986 0000799  64.2813 295.8289 15.75264005  4747
STARLINK-36990          
1 68068U 26041AE  26091.20961351  .00335111  00000+0  16296-2 0  9995
2 68068  53.1569 309.0314 0000871  34.6658 325.4421 15.80962162  4787
STARLINK-36766          
1 68069U 26042A   26091.50001156  .00044849  00000+0  29552-3 0  9993
2 68069  53.1582  80.5767 0001189  73.1490 124.6334 15.75213224  5708
STARLINK-36823          
1 68070U 26042B   26091.26483014  .00249621  00000+0  12282-2 0  9991
2 68070  53.1563  81.6298 0001082  38.4869 321.6230 15.80941111  5653
STARLINK-36970          
1 68071U 26042C   26091.35222493  .00182534  00000+0  11670-2 0  9993
2 68071  53.1585  81.4728 0001734 114.8825 245.2376 15.75286596  5665
STARLINK-36972          
1 68072U 26042D   26091.50001156  .00043273  00000+0  28526-3 0  9997
2 68072  53.1590  80.4748 0001262  92.0724 155.3543 15.75218561  5714
STARLINK-37074          
1 68073U 26042E   26091.46970867  .00320516  00000+0  20101-2 0  9995
2 68073  53.1572  80.7784 0001039 140.3686 219.7410 15.75314701  5681
STARLINK-37045          
1 68074U 26042F   26091.42928832  .00164343  00000+0  10528-2 0  9993
2 68074  53.1584  81.2485 0001263 105.0018 255.1142 15.75298433  5673
STARLINK-37026          
1 68075U 26042G   26091.18490697  .00305707  00000+0  19264-2 0  9997
2 68075  53.1557  82.5718 0001097 102.4435 257.6708 15.75248719  5639
